{
    "links": {
        "self": "http://www.neowsapp.com/rest/v1/neo/3736201?api_key=iIulBulltgU6a56xZRHN4H3l9WmuAYTsLGpBGhQ2"
    },
    "id": "3736201",
    "neo_reference_id": "3736201",
    "name": "(2015 XM128)",
    "designation": "2015 XM128",
    "nasa_jpl_url": "http://ssd.jpl.nasa.gov/sbdb.cgi?sstr=3736201",
    "absolute_magnitude_h": 23.8,
    "estimated_diameter": {
        "kilometers": {
            "estimated_diameter_min": 0.046190746,
            "estimated_diameter_max": 0.1032856481
        },
        "meters": {
            "estimated_diameter_min": 46.1907460282,
            "estimated_diameter_max": 103.2856480504
        },
        "miles": {
            "estimated_diameter_min": 0.0287015901,
            "estimated_diameter_max": 0.0641787064
        },
        "feet": {
            "estimated_diameter_min": 151.544447199,
            "estimated_diameter_max": 338.8636855496
        }
    },
    "is_potentially_hazardous_asteroid": false,
    "close_approach_data": [
        {
            "close_approach_date": "2013-03-03",
            "close_approach_date_full": "2013-Mar-03 22:11",
            "epoch_date_close_approach": 1362348660000,
            "relative_velocity": {
                "kilometers_per_second": "18.0419128084",
                "kilometers_per_hour": "64950.8861103786",
                "miles_per_hour": "40357.9547611961"
            },
            "miss_distance": {
                "astronomical": "0.3817340852",
                "lunar": "148.4945591428",
                "kilometers": "57106606.052318524",
                "miles": "35484399.5674386712"
            },
            "orbiting_body": "Earth"
        },
        {
            "close_approach_date": "2016-01-04",
            "close_approach_date_full": "2016-Jan-04 00:03",
            "epoch_date_close_approach": 1451865780000,
            "relative_velocity": {
                "kilometers_per_second": "7.7676799947",
                "kilometers_per_hour": "27963.6479807768",
                "miles_per_hour": "17375.5233800554"
            },
            "miss_distance": {
                "astronomical": "0.0513805286",
                "lunar": "19.9870256254",
                "kilometers": "7686417.638034082",
                "miles": "4776118.4487190516"
            },
            "orbiting_body": "Earth"
        },
        {
            "close_approach_date": "2018-11-20",
            "close_approach_date_full": "2018-Nov-20 10:06",
            "epoch_date_close_approach": 1542708360000,
            "relative_velocity": {
                "kilometers_per_second": "18.1447405474",
                "kilometers_per_hour": "65321.0659707001",
                "miles_per_hour": "40587.9701305164"
            },
            "miss_distance": {
                "astronomical": "0.3492348333",
                "lunar": "135.8523501537",
                "kilometers": "52244787.191485071",
                "miles": "32463405.4126771398"
            },
            "orbiting_body": "Earth"
        }
    ],
    "orbital_data": {
        "orbit_id": "12",
        "orbit_determination_date": "2017-04-06 08:30:10",
        "first_observation_date": "2015-12-05",
        "last_observation_date": "2016-02-13",
        "data_arc_in_days": 70,
        "observations_used": 54,
        "orbit_uncertainty": "7",
        "minimum_orbit_intersection": ".0326267",
        "jupiter_tisserand_invariant": "3.602",
        "epoch_osculation": "2459000.5",
        "eccentricity": ".5168097174426394",
        "semi_major_axis": "2.051794622473115",
        "inclination": "7.658823744887237",
        "ascending_node_longitude": "83.10150041915909",
        "orbital_period": "1073.493101067043",
        "perihelion_distance": ".9914072233824573",
        "perihelion_argument": "27.12901918206232",
        "aphelion_distance": "3.112182021563772",
        "perihelion_time": "2458471.125691691427",
        "mean_anomaly": "177.5276904915891",
        "mean_motion": ".3353538086478273",
        "equinox": "J2000",
        "orbit_class": {
            "orbit_class_type": "APO",
            "orbit_class_description": "Near-Earth asteroid orbits which cross the Earth’s orbit similar to that of 1862 Apollo",
            "orbit_class_range": "a (semi-major axis) > 1.0 AU; q (perihelion) < 1.017 AU"
        }
    },
    "is_sentry_object": false
}